[{"OBJECT_NAME":"SATGUS","OBJECT_ID":"2025-009DJ","EPOCH":"2026-03-09T16:57:39.644640","MEAN_MOTION":14.99840473,"ECCENTRICITY":0.00056702,"INCLINATION":97.7097,"RA_OF_ASC_NODE":150.9679,"ARG_OF_PERICENTER":96.3538,"MEAN_ANOMALY":263.8332,"EPHEMERIS_TYPE":0,"CLASSIFICATION_TYPE":"U","NORAD_CAT_ID":62713,"ELEMENT_SET_NO":999,"REV_AT_EPOCH":6264,"BSTAR":0.00076063433,"MEAN_MOTION_DOT":9.37e-5,"MEAN_MOTION_DDOT":0},{"OBJECT_NAME":"STARLINK-36243","OBJECT_ID":"2025-298C","EPOCH":"2026-03-09T21:28:03.374400","MEAN_MOTION":14.98334013,"ECCENTRICITY":0.00013353,"INCLINATION":70.0023,"RA_OF_ASC_NODE":14.1188,"ARG_OF_PERICENTER":253.4431,"MEAN_ANOMALY":106.6581,"EPHEMERIS_TYPE":0,"CLASSIFICATION_TYPE":"U","NORAD_CAT_ID":67077,"ELEMENT_SET_NO":999,"REV_AT_EPOCH":1324,"BSTAR":0.00033175963,"MEAN_MOTION_DOT":3.868e-5,"MEAN_MOTION_DDOT":0}]
